[{"OBJECT_NAME":"GPS BIIF-11","OBJECT_ID":"2015-062A","EPOCH":"2026-03-05T13:45:33.866496","MEAN_MOTION":2.00567091,"ECCENTRICITY":0.0111452,"INCLINATION":56.8937,"RA_OF_ASC_NODE":34.8029,"ARG_OF_PERICENTER":231.5057,"MEAN_ANOMALY":127.4773,"EPHEMERIS_TYPE":0,"CLASSIFICATION_TYPE":"U","NORAD_CAT_ID":41019,"ELEMENT_SET_NO":999,"REV_AT_EPOCH":7575,"BSTAR":0,"MEAN_MOTION_DOT":-7.9e-7,"MEAN_MOTION_DDOT":0},{"OBJECT_NAME":"ELEKTRO-L 2","OBJECT_ID":"2015-074A","EPOCH":"2026-03-05T13:36:32.133312","MEAN_MOTION":1.00270857,"ECCENTRICITY":0.0003378,"INCLINATION":6.4339,"RA_OF_ASC_NODE":71.7988,"ARG_OF_PERICENTER":239.1004,"MEAN_ANOMALY":42.0209,"EPHEMERIS_TYPE":0,"CLASSIFICATION_TYPE":"U","NORAD_CAT_ID":41105,"ELEMENT_SET_NO":999,"REV_AT_EPOCH":3746,"BSTAR":0,"MEAN_MOTION_DOT":-1.22e-6,"MEAN_MOTION_DDOT":0},{"OBJECT_NAME":"GSAT0209 (GALILEO 12)","OBJECT_ID":"2015-079A","EPOCH":"2026-03-04T00:58:01.778304","MEAN_MOTION":1.70474529,"ECCENTRICITY":0.0004747,"INCLINATION":55.759,"RA_OF_ASC_NODE":104.1453,"ARG_OF_PERICENTER":323.4357,"MEAN_ANOMALY":36.6173,"EPHEMERIS_TYPE":0,"CLASSIFICATION_TYPE":"U","NORAD_CAT_ID":41174,"ELEMENT_SET_NO":999,"REV_AT_EPOCH":6298,"BSTAR":0,"MEAN_MOTION_DOT":1.3e-7,"MEAN_MOTION_DDOT":0},{"OBJECT_NAME":"GSAT0208 (GALILEO 11)","OBJECT_ID":"2015-079B","EPOCH":"2026-03-03T02:05:47.447808","MEAN_MOTION":1.70474318,"ECCENTRICITY":0.00041639,"INCLINATION":55.7569,"RA_OF_ASC_NODE":104.1685,"ARG_OF_PERICENTER":323.7694,"MEAN_ANOMALY":36.289,"EPHEMERIS_TYPE":0,"CLASSIFICATION_TYPE":"U","NORAD_CAT_ID":41175,"ELEMENT_SET_NO":999,"REV_AT_EPOCH":6338,"BSTAR":0,"MEAN_MOTION_DOT":1.5e-7,"MEAN_MOTION_DDOT":0},{"OBJECT_NAME":"GPS BIIF-12","OBJECT_ID":"2016-007A","EPOCH":"2026-03-05T03:50:35.213856","MEAN_MOTION":2.00556727,"ECCENTRICITY":0.00954531,"INCLINATION":55.4561,"RA_OF_ASC_NODE":93.5827,"ARG_OF_PERICENTER":246.0235,"MEAN_ANOMALY":113.0379,"EPHEMERIS_TYPE":0,"CLASSIFICATION_TYPE":"U","NORAD_CAT_ID":41328,"ELEMENT_SET_NO":999,"REV_AT_EPOCH":7375,"BSTAR":0,"MEAN_MOTION_DOT":4.0e-8,"MEAN_MOTION_DDOT":0},{"OBJECT_NAME":"GSAT0211 (GALILEO 14)","OBJECT_ID":"2016-030A","EPOCH":"2026-03-04T23:18:18.658656","MEAN_MOTION":1.70473864,"ECCENTRICITY":0.0003586,"INCLINATION":55.1315,"RA_OF_ASC_NODE":224.5579,"ARG_OF_PERICENTER":25.2753,"MEAN_ANOMALY":334.6794,"EPHEMERIS_TYPE":0,"CLASSIFICATION_TYPE":"U","NORAD_CAT_ID":41549,"ELEMENT_SET_NO":999,"REV_AT_EPOCH":6089,"BSTAR":0,"MEAN_MOTION_DOT":1.4e-7,"MEAN_MOTION_DDOT":0},{"OBJECT_NAME":"GSAT0210 (GALILEO 13)","OBJECT_ID":"2016-030B","EPOCH":"2026-03-05T05:28:47.437248","MEAN_MOTION":1.70473971,"ECCENTRICITY":0.0001188,"INCLINATION":55.1285,"RA_OF_ASC_NODE":224.5491,"ARG_OF_PERICENTER":194.8212,"MEAN_ANOMALY":165.1129,"EPHEMERIS_TYPE":0,"CLASSIFICATION_TYPE":"U","NORAD_CAT_ID":41550,"ELEMENT_SET_NO":999,"REV_AT_EPOCH":6089,"BSTAR":0,"MEAN_MOTION_DOT":1.5e-7,"MEAN_MOTION_DDOT":0},{"OBJECT_NAME":"INSAT-3DR","OBJECT_ID":"2016-054A","EPOCH":"2026-03-05T16:03:37.303200","MEAN_MOTION":1.0027259,"ECCENTRICITY":0.0013138,"INCLINATION":0.0506,"RA_OF_ASC_NODE":95.8108,"ARG_OF_PERICENTER":186.1953,"MEAN_ANOMALY":196.2787,"EPHEMERIS_TYPE":0,"CLASSIFICATION_TYPE":"U","NORAD_CAT_ID":41752,"ELEMENT_SET_NO":999,"REV_AT_EPOCH":3478,"BSTAR":0,"MEAN_MOTION_DOT":-8.4e-7,"MEAN_MOTION_DDOT":0},{"OBJECT_NAME":"GSAT0207 (GALILEO 15)","OBJECT_ID":"2016-069A","EPOCH":"2026-02-28T05:27:34.324704","MEAN_MOTION":1.70474383,"ECCENTRICITY":0.00050316,"INCLINATION":55.4267,"RA_OF_ASC_NODE":104.1007,"ARG_OF_PERICENTER":309.1503,"MEAN_ANOMALY":50.8842,"EPHEMERIS_TYPE":0,"CLASSIFICATION_TYPE":"U","NORAD_CAT_ID":41859,"ELEMENT_SET_NO":999,"REV_AT_EPOCH":5754,"BSTAR":0,"MEAN_MOTION_DOT":8.0e-8,"MEAN_MOTION_DDOT":0},{"OBJECT_NAME":"GSAT0212 (GALILEO 16)","OBJECT_ID":"2016-069B","EPOCH":"2026-03-03T00:20:06.105120","MEAN_MOTION":1.70474657,"ECCENTRICITY":0.0003622,"INCLINATION":55.4261,"RA_OF_ASC_NODE":104.0186,"ARG_OF_PERICENTER":335.7588,"MEAN_ANOMALY":24.3106,"EPHEMERIS_TYPE":0,"CLASSIFICATION_TYPE":"U","NORAD_CAT_ID":41860,"ELEMENT_SET_NO":999,"REV_AT_EPOCH":5784,"BSTAR":0,"MEAN_MOTION_DOT":1.4e-7,"MEAN_MOTION_DDOT":0},{"OBJECT_NAME":"GSAT0213 (GALILEO 17)","OBJECT_ID":"2016-069C","EPOCH":"2026-02-27T06:36:27.411264","MEAN_MOTION":1.70474834,"ECCENTRICITY":0.00051302,"INCLINATION":55.426,"RA_OF_ASC_NODE":104.1303,"ARG_OF_PERICENTER":291.6331,"MEAN_ANOMALY":68.3872,"EPHEMERIS_TYPE":0,"CLASSIFICATION_TYPE":"U","NORAD_CAT_ID":41861,"ELEMENT_SET_NO":999,"REV_AT_EPOCH":5764,"BSTAR":0,"MEAN_MOTION_DOT":4.0e-8,"MEAN_MOTION_DDOT":0},{"OBJECT_NAME":"GSAT0214 (GALILEO 18)","OBJECT_ID":"2016-069D","EPOCH":"2026-02-28T00:11:27.536640","MEAN_MOTION":1.70474701,"ECCENTRICITY":0.00041329,"INCLINATION":55.425,"RA_OF_ASC_NODE":104.1026,"ARG_OF_PERICENTER":296.1582,"MEAN_ANOMALY":63.8775,"EPHEMERIS_TYPE":0,"CLASSIFICATION_TYPE":"U","NORAD_CAT_ID":41862,"ELEMENT_SET_NO":999,"REV_AT_EPOCH":5778,"BSTAR":0,"MEAN_MOTION_DOT":7.0e-8,"MEAN_MOTION_DDOT":0},{"OBJECT_NAME":"GOES 16","OBJECT_ID":"2016-071A","EPOCH":"2026-03-05T15:12:42.187104","MEAN_MOTION":1.00271863,"ECCENTRICITY":0.0002454,"INCLINATION":0.141,"RA_OF_ASC_NODE":89.5903,"ARG_OF_PERICENTER":220.5452,"MEAN_ANOMALY":336.6996,"EPHEMERIS_TYPE":0,"CLASSIFICATION_TYPE":"U","NORAD_CAT_ID":41866,"ELEMENT_SET_NO":999,"REV_AT_EPOCH":3406,"BSTAR":0,"MEAN_MOTION_DOT":-9.8e-7,"MEAN_MOTION_DDOT":0},{"OBJECT_NAME":"GSAT-17","OBJECT_ID":"2017-040B","EPOCH":"2026-03-05T07:35:32.138016","MEAN_MOTION":1.0026984,"ECCENTRICITY":0.0004948,"INCLINATION":0.0381,"RA_OF_ASC_NODE":296.1388,"ARG_OF_PERICENTER":351.8585,"MEAN_ANOMALY":82.4276,"EPHEMERIS_TYPE":0,"CLASSIFICATION_TYPE":"U","NORAD_CAT_ID":42815,"ELEMENT_SET_NO":999,"REV_AT_EPOCH":3174,"BSTAR":0,"MEAN_MOTION_DOT":-2.66e-6,"MEAN_MOTION_DDOT":0},{"OBJECT_NAME":"GSAT0215 (GALILEO 19)","OBJECT_ID":"2017-079A","EPOCH":"2026-03-03T10:20:26.274624","MEAN_MOTION":1.70474475,"ECCENTRICITY":6.318e-5,"INCLINATION":55.108,"RA_OF_ASC_NODE":224.4135,"ARG_OF_PERICENTER":13.1955,"MEAN_ANOMALY":346.7446,"EPHEMERIS_TYPE":0,"CLASSIFICATION_TYPE":"U","NORAD_CAT_ID":43055,"ELEMENT_SET_NO":999,"REV_AT_EPOCH":5118,"BSTAR":0,"MEAN_MOTION_DOT":1.0e-7,"MEAN_MOTION_DDOT":0},{"OBJECT_NAME":"GSAT0216 (GALILEO 20)","OBJECT_ID":"2017-079B","EPOCH":"2026-03-01T23:05:47.137632","MEAN_MOTION":1.70474524,"ECCENTRICITY":0.00016887,"INCLINATION":55.1088,"RA_OF_ASC_NODE":224.454,"ARG_OF_PERICENTER":322.1798,"MEAN_ANOMALY":37.7539,"EPHEMERIS_TYPE":0,"CLASSIFICATION_TYPE":"U","NORAD_CAT_ID":43056,"ELEMENT_SET_NO":999,"REV_AT_EPOCH":5117,"BSTAR":0,"MEAN_MOTION_DOT":1.3e-7,"MEAN_MOTION_DDOT":0},{"OBJECT_NAME":"GSAT0217 (GALILEO 21)","OBJECT_ID":"2017-079C","EPOCH":"2026-03-05T02:47:02.109696","MEAN_MOTION":1.70474546,"ECCENTRICITY":0.0002088,"INCLINATION":55.1079,"RA_OF_ASC_NODE":224.3651,"ARG_OF_PERICENTER":356.014,"MEAN_ANOMALY":3.9214,"EPHEMERIS_TYPE":0,"CLASSIFICATION_TYPE":"U","NORAD_CAT_ID":43057,"ELEMENT_SET_NO":999,"REV_AT_EPOCH":5121,"BSTAR":0,"MEAN_MOTION_DOT":1.4e-7,"MEAN_MOTION_DDOT":0}]
